{
  "type": "FeatureCollection",
  "features": [
    {
      "type": "Feature",
      "properties": {
        "norad_id": 31923,
        "name": "FENGYUN 1C DEB",
        "group": "fengyun-1c-debris",
        "lat": 48.34344667810666,
        "lon": 82.99711254835425,
        "alt_km": 1224.1699754630627,
        "timestamp": "2025-12-26T21:25:53.295305+00:00",
        "meta_object_name": "FENGYUN 1C DEB",
        "meta_object_id": "1999-025CMA",
        "meta_epoch": "2025-12-20T05:40:47.009280",
        "meta_mean_motion": 13.54908967,
        "meta_eccentricity": 0.0300717,
        "meta_inclination": 98.4358,
        "meta_ra_of_asc_node": 86.9011,
        "meta_arg_of_pericenter": 284.1241,
        "meta_mean_anomaly": 72.6659,
        "meta_ephemeris_type": 0,
        "meta_classification_type": "U",
        "meta_norad_cat_id": 31923,
        "meta_element_set_no": 999,
        "meta_rev_at_epoch": 63736,
        "meta_bstar": 0.0012343,
        "meta_mean_motion_dot": 1.096e-05,
        "meta_mean_motion_ddot": 0,
        "tle_line1": "1 31923U 99025CMA 25354.23665520  .00001096  00000+0  12343-2 0  9991",
        "tle_line2": "2 31923  98.4358  86.9011 0300717 284.1241  72.6659 13.54908967637364"
      },
      "geometry": {
        "type": "Point",
        "coordinates": [
          82.99711254835425,
          48.34344667810666
        ]
      }
    },
    {
      "type": "Feature",
      "properties": {
        "norad_id": 31924,
        "name": "FENGYUN 1C DEB",
        "group": "fengyun-1c-debris",
        "lat": 52.545547191910515,
        "lon": 145.21969789557366,
        "alt_km": 815.9562589815014,
        "timestamp": "2025-12-26T21:25:53.295315+00:00",
        "meta_object_name": "FENGYUN 1C DEB",
        "meta_object_id": "1999-025CMB",
        "meta_epoch": "2025-12-26T08:51:30.584736",
        "meta_mean_motion": 13.63943834,
        "meta_eccentricity": 0.02722468,
        "meta_inclination": 98.4012,
        "meta_ra_of_asc_node": 155.8886,
        "meta_arg_of_pericenter": 60.7437,
        "meta_mean_anomaly": 302.0634,
        "meta_ephemeris_type": 0,
        "meta_classification_type": "U",
        "meta_norad_cat_id": 31924,
        "meta_element_set_no": 999,
        "meta_rev_at_epoch": 91653,
        "meta_bstar": 0.0013331874,
        "meta_mean_motion_dot": 1.329e-05,
        "meta_mean_motion_ddot": 0,
        "tle_line1": "1 31924U 99025CMB 25360.36910399  .00001329  00000+0  13332-2 0  9998",
        "tle_line2": "2 31924  98.4012 155.8886 0272246  60.7437 302.0634 13.63943834916532"
      },
      "geometry": {
        "type": "Point",
        "coordinates": [
          145.21969789557366,
          52.545547191910515
        ]
      }
    },
    {
      "type": "Feature",
      "properties": {
        "norad_id": 31926,
        "name": "FENGYUN 1C DEB",
        "group": "fengyun-1c-debris",
        "lat": -69.48696068493433,
        "lon": 121.48485180618697,
        "alt_km": 788.4076546690239,
        "timestamp": "2025-12-26T21:25:53.295325+00:00",
        "meta_object_name": "FENGYUN 1C DEB",
        "meta_object_id": "1999-025CMD",
        "meta_epoch": "2025-12-25T17:14:09.122496",
        "meta_mean_motion": 14.30877947,
        "meta_eccentricity": 0.00402358,
        "meta_inclination": 98.9563,
        "meta_ra_of_asc_node": 95.3452,
        "meta_arg_of_pericenter": 216.9967,
        "meta_mean_anomaly": 142.8439,
        "meta_ephemeris_type": 0,
        "meta_classification_type": "U",
        "meta_norad_cat_id": 31926,
        "meta_element_set_no": 999,
        "meta_rev_at_epoch": 95413,
        "meta_bstar": 0.0025288246,
        "meta_mean_motion_dot": 6.655e-05,
        "meta_mean_motion_ddot": 0,
        "tle_line1": "1 31926U 99025CMD 25359.71816114  .00006655  00000+0  25288-2 0  9997",
        "tle_line2": "2 31926  98.9563  95.3452 0040235 216.9967 142.8439 14.30877947954138"
      },
      "geometry": {
        "type": "Point",
        "coordinates": [
          121.48485180618697,
          -69.48696068493433
        ]
      }
    },
    {
      "type": "Feature",
      "properties": {
        "norad_id": 31929,
        "name": "FENGYUN 1C DEB",
        "group": "fengyun-1c-debris",
        "lat": -53.81940674708122,
        "lon": -61.71622771630028,
        "alt_km": 821.7805367492165,
        "timestamp": "2025-12-26T21:25:53.295336+00:00",
        "meta_object_name": "FENGYUN 1C DEB",
        "meta_object_id": "1999-025CME",
        "meta_epoch": "2025-12-26T15:19:08.692320",
        "meta_mean_motion": 14.3497082,
        "meta_eccentricity": 0.00736149,
        "meta_inclination": 98.7919,
        "meta_ra_of_asc_node": 130.2411,
        "meta_arg_of_pericenter": 14.548,
        "meta_mean_anomaly": 345.78,
        "meta_ephemeris_type": 0,
        "meta_classification_type": "U",
        "meta_norad_cat_id": 31929,
        "meta_element_set_no": 999,
        "meta_rev_at_epoch": 70845,
        "meta_bstar": 0.00044903781,
        "meta_mean_motion_dot": 1.272e-05,
        "meta_mean_motion_ddot": 0,
        "tle_line1": "1 31929U 99025CME 25360.63829505  .00001272  00000+0  44904-3 0  9998",
        "tle_line2": "2 31929  98.7919 130.2411 0073614  14.5480 345.7800 14.34970820708453"
      },
      "geometry": {
        "type": "Point",
        "coordinates": [
          -61.71622771630028,
          -53.81940674708122
        ]
      }
    },
    {
      "type": "Feature",
      "properties": {
        "norad_id": 31931,
        "name": "FENGYUN 1C DEB",
        "group": "fengyun-1c-debris",
        "lat": -36.20049635127738,
        "lon": -46.01260647234441,
        "alt_km": 1096.2902472301466,
        "timestamp": "2025-12-26T21:25:53.295346+00:00",
        "meta_object_name": "FENGYUN 1C DEB",
        "meta_object_id": "1999-025CMG",
        "meta_epoch": "2025-12-23T02:24:09.253440",
        "meta_mean_motion": 13.42631589,
        "meta_eccentricity": 0.0422514,
        "meta_inclination": 97.8147,
        "meta_ra_of_asc_node": 305.2675,
        "meta_arg_of_pericenter": 242.6444,
        "meta_mean_anomaly": 113.1098,
        "meta_ephemeris_type": 0,
        "meta_classification_type": "U",
        "meta_norad_cat_id": 31931,
        "meta_element_set_no": 999,
        "meta_rev_at_epoch": 65361,
        "meta_bstar": 0.00051347655,
        "meta_mean_motion_dot": 4.63e-06,
        "meta_mean_motion_ddot": 0,
        "tle_line1": "1 31931U 99025CMG 25357.10010710  .00000463  00000+0  51348-3 0  9990",
        "tle_line2": "2 31931  97.8147 305.2675 0422514 242.6444 113.1098 13.42631589653613"
      },
      "geometry": {
        "type": "Point",
        "coordinates": [
          -46.01260647234441,
          -36.20049635127738
        ]
      }
    },
    {
      "type": "Feature",
      "properties": {
        "norad_id": 31934,
        "name": "FENGYUN 1C DEB",
        "group": "fengyun-1c-debris",
        "lat": -7.342245213860649,
        "lon": 53.55101120210009,
        "alt_km": 569.3811998085112,
        "timestamp": "2025-12-26T21:25:53.295356+00:00",
        "meta_object_name": "FENGYUN 1C DEB",
        "meta_object_id": "1999-025CMK",
        "meta_epoch": "2025-12-26T08:43:39.067968",
        "meta_mean_motion": 15.08306736,
        "meta_eccentricity": 0.00362197,
        "meta_inclination": 98.8798,
        "meta_ra_of_asc_node": 51.7855,
        "meta_arg_of_pericenter": 188.8739,
        "meta_mean_anomaly": 171.1849,
        "meta_ephemeris_type": 0,
        "meta_classification_type": "U",
        "meta_norad_cat_id": 31934,
        "meta_element_set_no": 999,
        "meta_rev_at_epoch": 61048,
        "meta_bstar": 0.0035355006,
        "meta_mean_motion_dot": 0.00055999,
        "meta_mean_motion_ddot": 0,
        "tle_line1": "1 31934U 99025CMK 25360.36364662  .00055999  00000+0  35355-2 0  9996",
        "tle_line2": "2 31934  98.8798  51.7855 0036219 188.8739 171.1849 15.08306736610486"
      },
      "geometry": {
        "type": "Point",
        "coordinates": [
          53.55101120210009,
          -7.342245213860649
        ]
      }
    },
    {
      "type": "Feature",
      "properties": {
        "norad_id": 31937,
        "name": "FENGYUN 1C DEB",
        "group": "fengyun-1c-debris",
        "lat": -9.981833197808019,
        "lon": 94.23024741939848,
        "alt_km": 649.4736846553515,
        "timestamp": "2025-12-26T21:25:53.295367+00:00",
        "meta_object_name": "FENGYUN 1C DEB",
        "meta_object_id": "1999-025CMN",
        "meta_epoch": "2025-12-06T23:52:27.149088",
        "meta_mean_motion": 14.78022374,
        "meta_eccentricity": 0.0162921,
        "meta_inclination": 99.2561,
        "meta_ra_of_asc_node": 69.7316,
        "meta_arg_of_pericenter": 315.3928,
        "meta_mean_anomaly": 43.4262,
        "meta_ephemeris_type": 0,
        "meta_classification_type": "U",
        "meta_norad_cat_id": 31937,
        "meta_element_set_no": 999,
        "meta_rev_at_epoch": 65984,
        "meta_bstar": 0.0011794166,
        "meta_mean_motion_dot": 0.00010567,
        "meta_mean_motion_ddot": 0,
        "tle_line1": "1 31937U 99025CMN 25340.99475867  .00010567  00000+0  11794-2 0  9999",
        "tle_line2": "2 31937  99.2561  69.7316 0162921 315.3928  43.4262 14.78022374659842"
      },
      "geometry": {
        "type": "Point",
        "coordinates": [
          94.23024741939848,
          -9.981833197808019
        ]
      }
    }
  ]
}